NORAD_CAT_ID,OBJECT_NAME,OBJECT_TYPE,EPOCH,MEAN_MOTION,ECCENTRICITY,INCLINATION,RA_OF_ASC_NODE,ARG_OF_PERICENTER,MEAN_ANOMALY,BSTAR,MEAN_MOTION_DOT,MEAN_MOTION_DDOT,TLE_LINE0,TLE_LINE1,TLE_LINE2,SEMIMAJOR_AXIS,PERIOD,APOGEE,PERIGEE,DECAYED
54774.0,STARLINK-5454,PAYLOAD,2023-12-10 13:37:37,15.08838117,0.0001281,53.2169,110.4722,72.5318,287.5814,1.2377e-05,-9.1e-07,0.0,0 STARLINK-5454,1 54774U 22175S   23344.56779901 -.00000091  00000-0  12377-4 0  9999,2 54774  53.2169 110.4722 0001281  72.5318 287.5814 15.08838117 56323,6917.886,95.438,540.637,538.865,0.0
54774.0,STARLINK-5454,PAYLOAD,2023-12-10 15:13:00,15.08839861,0.0001297,53.217,110.1738,82.7362,277.3778,2.2941e-05,7.7e-07,0.0,0 STARLINK-5454,1 54774U 22175S   23344.63403724  .00000077  00000-0  22941-4 0  9995,2 54774  53.2170 110.1738 0001297  82.7362 277.3778 15.08839861 56332,6917.881,95.438,540.643,538.849,0.0
54774.0,STARLINK-5454,PAYLOAD,2023-12-11 13:28:24,15.08836379,0.0001458,53.2188,106.0125,99.5674,260.5483,1.5164e-05,-4.7e-07,0.0,0 STARLINK-5454,1 54774U 22175S   23345.56139971 -.00000047  00000-0  15164-4 0  9995,2 54774  53.2188 106.0125 0001458  99.5674 260.5483 15.08836379 56479,6917.891,95.438,540.765,538.748,0.0
54774.0,STARLINK-5454,PAYLOAD,2023-12-11 15:03:47,15.0884118,0.0001285,53.2188,105.7157,77.6239,282.4897,5.7372e-05,6.25e-06,0.0,0 STARLINK-5454,1 54774U 22175S   23345.62763644  .00000625  00000-0  57372-4 0  9990,2 54774  53.2188 105.7157 0001285  77.6239 282.4897 15.08841180 54322,6917.877,95.437,540.631,538.853,0.0
54774.0,STARLINK-5454,PAYLOAD,2023-12-12 11:43:49,15.08837554,0.0001324,53.2189,101.8486,89.5761,270.5383,-3.005e-05,-7.66e-06,0.0,0 STARLINK-5454,1 54774U 22175S   23346.48876224 -.00000766  00000-0 -30050-4 0  9996,2 54774  53.2189 101.8486 0001324  89.5761 270.5383 15.08837554 54453,6917.888,95.438,540.669,538.837,0.0
54774.0,STARLINK-5454,PAYLOAD,2023-12-12 13:19:12,15.08837724,0.0001334,53.2186,101.552,79.3024,280.8118,-1.3153e-05,-4.97e-06,0.0,0 STARLINK-5454,1 54774U 22175S   23346.55500212 -.00000497  00000-0 -13153-4 0  9991,2 54774  53.2186 101.5520 0001334  79.3024 280.8118 15.08837724 56626,6917.887,95.438,540.675,538.829,0.0
54774.0,STARLINK-5454,PAYLOAD,2023-12-13 13:09:59,15.08842833,0.0001284,53.2175,97.0898,95.6163,264.4976,-2.799e-05,-7.33e-06,0.0,0 STARLINK-5454,1 54774U 22175S   23347.54859978 -.00000733  00000-0 -27990-4 0  9994,2 54774  53.2175  97.0898 0001284  95.6163 264.4976 15.08842833 56773,6917.872,95.437,540.625,538.848,0.0
54774.0,STARLINK-5454,PAYLOAD,2023-12-13 19:31:31,15.0884323,0.0001286,53.2175,95.8999,89.7513,270.3627,7.6731e-05,9.34e-06,0.0,0 STARLINK-5454,1 54774U 22175S   23347.81355531  .00000934  00000-0  76731-4 0  9998,2 54774  53.2175  95.8999 0001286  89.7513 270.3627 15.08843230 54652,6917.871,95.437,540.625,538.846,0.0
54774.0,STARLINK-5454,PAYLOAD,2023-12-14 03:28:27,15.08832761,0.0001312,53.2175,94.4134,81.4302,278.6839,-5.3232e-05,-1.135e-05,0.0,0 STARLINK-5454,1 54774U 22175S   23348.14476758 -.00001135  00000-0 -53232-4 0  9997,2 54774  53.2175  94.4134 0001312  81.4302 278.6839 15.08832761 54702,6917.903,95.438,540.675,538.86,0.0
54774.0,STARLINK-5454,PAYLOAD,2023-12-14 11:25:22,15.08843277,0.0001293,53.2175,92.9263,85.282,274.832,3.2707e-05,2.33e-06,0.0,0 STARLINK-5454,1 54774U 22175S   23348.47595811  .00000233  00000-0  32707-4 0  9995,2 54774  53.2175  92.9263 0001293  85.2820 274.8320 15.08843277 54755,6917.87,95.437,540.63,538.841,0.0
54774.0,STARLINK-5454,PAYLOAD,2023-12-14 14:36:08,15.08845555,0.0001275,53.2177,92.3319,84.6766,275.4372,5.1698e-05,5.35e-06,0.0,0 STARLINK-5454,1 54774U 22175S   23348.60843570  .00000535  00000-0  51698-4 0  9993,2 54774  53.2177  92.3319 0001275  84.6766 275.4372 15.08845555 56932,6917.863,95.437,540.61,538.846,0.0
54774.0,STARLINK-5454,PAYLOAD,2023-12-14 19:22:17,15.0885113,0.0001283,53.2176,91.4397,85.0038,275.1101,9.4534e-05,1.217e-05,0.0,0 STARLINK-5454,1 54774U 22175S   23348.80714959  .00001217  00000-0  94534-4 0  9997,2 54774  53.2176  91.4397 0001283  85.0038 275.1101 15.08851130 54800,6917.846,95.437,540.599,538.824,0.0
54774.0,STARLINK-5454,PAYLOAD,2023-12-15 11:16:11,15.08825109,0.0001355,53.2177,88.4662,87.433,272.6817,-7.3957e-05,-1.464e-05,0.0,0 STARLINK-5454,1 54774U 22175S   23349.46957565 -.00001464  00000-0 -73957-4 0  9994,2 54774  53.2177  88.4662 0001355  87.4330 272.6817 15.08825109 54907,6917.926,95.438,540.728,538.854,0.0
54774.0,STARLINK-5454,PAYLOAD,2023-12-15 14:26:57,15.08829746,0.0001454,53.2178,87.8712,81.5913,278.5244,-3.2484e-05,-8.05e-06,0.0,0 STARLINK-5454,1 54774U 22175S   23349.60205264 -.00000805  00000-0 -32484-4 0  9990,2 54774  53.2178  87.8712 0001454  81.5913 278.5244 15.08829746 57081,6917.912,95.438,540.783,538.771,0.0
54774.0,STARLINK-5454,PAYLOAD,2023-12-15 19:13:06,15.08835306,0.0001468,53.2178,86.9795,80.1302,279.9856,-1.7037e-05,-5.59e-06,0.0,0 STARLINK-5454,1 54774U 22175S   23349.80076946 -.00000559  00000-0 -17037-4 0  9998,2 54774  53.2178  86.9795 0001468  80.1302 279.9856 15.08835306 54950,6917.895,95.438,540.775,538.744,0.0
54774.0,STARLINK-5454,PAYLOAD,2023-12-16 11:06:57,15.08842175,0.0001407,53.2179,84.0058,83.0143,277.1009,5.1304e-05,5.29e-06,0.0,0 STARLINK-5454,1 54774U 22175S   23350.46316283  .00000529  00000-0  51304-4 0  9993,2 54774  53.2179  84.0058 0001407  83.0143 277.1009 15.08842175 55054,6917.874,95.437,540.712,538.765,0.0
54774.0,STARLINK-5454,PAYLOAD,2023-12-16 12:42:20,15.08845317,0.0001499,53.2178,83.7084,78.7606,281.3554,7.7526e-05,9.46e-06,0.0,0 STARLINK-5454,1 54774U 22175S   23350.52940036  .00000946  00000-0  77526-4 0  9996,2 54774  53.2178  83.7084 0001499  78.7606 281.3554 15.08845317 57228,6917.864,95.437,540.766,538.692,0.0
54774.0,STARLINK-5454,PAYLOAD,2023-12-17 12:33:08,15.0883435,0.0001715,53.2169,79.2508,70.463,289.6548,6.6914e-05,7.77e-06,0.0,0 STARLINK-5454,1 54774U 22175S   23351.52300938  .00000777  00000-0  66914-4 0  9999,2 54774  53.2169  79.2508 0001715  70.4630 289.6548 15.08834350 55212,6917.898,95.438,540.949,538.576,0.0
54774.0,STARLINK-5454,PAYLOAD,2023-12-18 12:23:53,15.08852359,0.0001442,53.2177,74.787,88.888,271.2278,-1.0485e-05,-4.55e-06,0.0,0 STARLINK-5454,1 54774U 22175S   23352.51659709 -.00000455  00000-0 -10485-4 0  9999,2 54774  53.2177  74.7870 0001442  88.8880 271.2278 15.08852359 55362,6917.843,95.437,540.705,538.71,0.0
54774.0,STARLINK-5454,PAYLOAD,2023-12-19 10:39:18,15.08839002,0.0001674,53.2185,70.6207,114.6744,245.4422,-3.3528e-05,-8.22e-06,0.0,0 STARLINK-5454,1 54774U 22175S   23353.44396407 -.00000822  00000-0 -33528-4 0  9996,2 54774  53.2185  70.6207 0001674 114.6744 245.4422 15.08839002 55504,6917.883,95.438,540.906,538.59,0.0
54774.0,STARLINK-5454,PAYLOAD,2023-12-19 12:14:41,15.0883881,0.0001555,53.2185,70.3227,107.9778,252.1384,-3.8098e-05,-8.94e-06,0.0,0 STARLINK-5454,1 54774U 22175S   23353.51020454 -.00000894  00000-0 -38098-4 0  9996,2 54774  53.2185  70.3227 0001555 107.9778 252.1384 15.08838810 57671,6917.884,95.438,540.825,538.673,0.0
54774.0,STARLINK-5454,PAYLOAD,2023-12-20 10:30:06,15.08831677,0.0001416,53.2184,66.1621,94.4413,265.6741,-0.00015524,-2.757e-05,0.0,0 STARLINK-5454,1 54774U 22175S   23354.43757886 -.00002757  00000-0 -15524-3 0  9992,2 54774  53.2184  66.1621 0001416  94.4413 265.6741 15.08831677 55659,6917.906,95.438,540.75,538.791,0.0
54774.0,STARLINK-5454,PAYLOAD,2023-12-21 11:56:15,15.08848939,0.0001531,53.2193,61.404,95.492,264.6247,0.00018276,2.623e-05,0.0,0 STARLINK-5454,1 54774U 22175S   23355.49739911  .00002623  00000-0  18276-3 0  9995,2 54774  53.2193  61.4040 0001531  95.4920 264.6247 15.08848939 55811,6917.853,95.437,540.777,538.659,0.0
54774.0,STARLINK-5454,PAYLOAD,2023-12-21 23:03:58,15.08831914,0.0001465,53.2195,59.3279,107.5573,252.5579,9.5426e-05,1.231e-05,0.0,0 STARLINK-5454,1 54774U 22175S   23355.96109214  .00001231  00000-0  95426-4 0  9991,2 54774  53.2195  59.3279 0001465 107.5573 252.5579 15.08831914 55884,6917.905,95.438,540.784,538.757,0.0
54774.0,STARLINK-5454,PAYLOAD,2023-12-22 11:47:03,15.08839531,0.0001542,53.2192,56.9437,79.2046,280.912,2.0069e-05,3.1e-07,0.0,0 STARLINK-5454,1 54774U 22175S   23356.49101438  .00000031  00000-0  20069-4 0  9998,2 54774  53.2192  56.9437 0001542  79.2046 280.9120 15.08839531 58126,6917.882,95.438,540.814,538.68,0.0
54774.0,STARLINK-5454,PAYLOAD,2023-12-23 03:40:55,15.08844944,0.0001605,53.219,53.9772,77.7207,282.3964,-0.00012195,-2.229e-05,0.0,0 STARLINK-5454,1 54774U 22175S   23357.15341899 -.00002229  00000-0 -12195-3 0  9992,2 54774  53.2190  53.9772 0001605  77.7207 282.3964 15.08844944 56062,6917.865,95.437,540.841,538.62,0.0
54774.0,STARLINK-5454,PAYLOAD,2023-12-23 11:37:50,15.08847957,0.0001559,53.2188,52.4883,81.8818,278.2351,-8.452e-05,-1.633e-05,0.0,0 STARLINK-5454,1 54774U 22175S   23357.48461440 -.00001633  00000-0 -84520-4 0  9993,2 54774  53.2188  52.4883 0001559  81.8818 278.2351 15.08847957 58274,6917.856,95.437,540.8,538.643,0.0
54774.0,STARLINK-5454,PAYLOAD,2023-12-24 09:53:14,15.08838339,0.0001679,53.2187,48.3266,82.8258,277.2925,7.7022e-05,9.38e-06,0.0,0 STARLINK-5454,1 54774U 22175S   23358.41197454  .00000938  00000-0  77022-4 0  9992,2 54774  53.2187  48.3266 0001679  82.8258 277.2925 15.08838339 56250,6917.885,95.438,540.912,538.589,0.0
54774.0,STARLINK-5454,PAYLOAD,2023-12-24 13:04:00,15.08851432,0.0001557,53.2192,47.7262,101.5521,258.5646,6.0365e-05,6.73e-06,0.0,0 STARLINK-5454,1 54774U 22175S   23358.54444496  .00000673  00000-0  60365-4 0  9995,2 54774  53.2192  47.7262 0001557 101.5521 258.5646 15.08851432 58435,6917.845,95.437,540.788,538.633,0.0
54774.0,STARLINK-5454,PAYLOAD,2023-12-25 03:22:29,15.08833185,0.0001481,53.2187,45.0548,78.7827,281.3332,9.7624e-06,-1.33e-06,0.0,0 STARLINK-5454,1 54774U 22175S   23359.14061921 -.00000133  00000-0  97624-5 0  9991,2 54774  53.2187  45.0548 0001481  78.7827 281.3332 15.08833185 56368,6917.901,95.438,540.791,538.742,0.0
